ORBCOMM FM115 [+]       
1 41186U 15081H   23252.37255657  .00000926  00000+0  22722-3 0  9993
2 41186  46.9983 229.0155 0001479 309.8941  50.1815 14.59873798413188
ORBCOMM FM108 [+]       
1 41187U 15081J   23252.42381459  .00000659  00000+0  18660-3 0  9999
2 41187  47.0043 275.4635 0003306 247.2451 112.8084 14.55874130412481
ORBCOMM FM117 [+]       
1 41188U 15081K   23252.32028197  .00000665  00000+0  18781-3 0  9997
2 41188  47.0003 274.9193 0004094 251.4686 108.5754 14.55869849412514
ORBCOMM FM116 [+]       
1 41189U 15081L   23252.58486866  .00001067  00000+0  27859-3 0  9990
2 41189  47.0041   3.4804 0002292 307.0164  53.0511 14.55862861411362
